MEAN_MOTION;ECCENTRICITY;INCLINATION;RA_OF_ASC_NODE;ARG_OF_PERICENTER;MEAN_ANOMALY;BSTAR;MEAN_MOTION_DOT;MEAN_MOTION_DDOT;TYPE
12.62266267;8.38E-5;51.993;299.9333;69.5322;8.5334;9.1313E-5;-8.7E-7;0;Globalstar
12.62266339;8.53E-5;51.9928;296.8093;71.3148;350.8144;0.00014134;-7.8E-7;0;Globalstar
12.62266349;8.55E-5;51.9928;296.5412;71.4591;31.0449;0.00015411;-7.6E-7;0;Globalstar
12.62266403;8.62E-5;51.9926;293.667;72.3137;1.4194;0.00017678;-7.2E-7;0;Globalstar
12.62266407;8.64E-5;51.9926;293.375;72.3648;77.316;0.00017988;-7.2E-7;0;Globalstar
12.62266421;8.66E-5;51.9925;292.9225;72.476;32.8125;0.00018216;-7.1E-7;0;Globalstar
12.62266439;8.71E-5;51.9925;291.2597;73.4486;354.3737;0.00016831;-7.4E-7;0;Globalstar
12.62266454;8.77E-5;51.9924;289.9856;73.9825;96.0843;0.00017185;-7.3E-7;0;Globalstar
12.62266464;8.8E-5;51.9924;288.3893;74.991;318.3358;0.00014675;-7.7E-7;0;Globalstar
12.6226656;8.88E-5;51.9923;285.5022;75.7412;308.0976;0.00014792;-7.7E-7;0;Globalstar
12.62266597;8.71E-5;51.9927;284.2108;75.7549;76.0875;0.00014509;-7.8E-7;0;Globalstar
12.62266436;9.0E-5;51.992;281.326;77.8749;61.1161;1.2502E-5;-1.02E-6;0;Globalstar
12.62266451;8.82E-5;51.9925;278.4571;79.6618;22.6371;4.2578E-5;-9.6E-7;0;Globalstar
12.62266462;9.09E-5;51.9919;278.185;79.4773;69.2358;-1.124E-5;-1.06E-6;0;Globalstar
12.62266469;9.07E-5;51.9918;275.8202;80.823;358.4888;-3.123E-5;-1.09E-6;0;Globalstar
12.6226652;9.13E-5;51.9918;274.8262;81.8797;41.5986;-5.986E-6;-1.05E-6;0;Globalstar
12.62266519;9.11E-5;51.9917;272.4289;83.85;18.7655;-5.278E-6;-1.05E-6;0;Globalstar
12.62266523;9.13E-5;51.9917;271.6694;83.4971;73.0936;-3.1833E-6;-1.04E-6;0;Globalstar
12.62266524;9.11E-5;51.9917;269.303;85.2256;4.2981;1.245E-5;-1.02E-6;0;Globalstar
12.62266518;9.08E-5;51.9916;267.422;85.4725;292.4814;2.4692E-5;-9.9E-7;0;Globalstar
12.62266499;9.1E-5;51.9916;266.4005;86.0574;16.904;2.194E-5;-1.0E-6;0;Globalstar
12.6226652;9.06E-5;51.9916;264.2758;87.2976;307.6726;4.7386E-5;-9.5E-7;0;Globalstar
12.62266513;9.08E-5;51.9916;263.7639;87.4821;351.775;4.723E-5;-9.5E-7;0;Globalstar
12.62266518;9.04E-5;51.9917;260.8727;88.8438;346.9422;6.3793E-5;-9.2E-7;0;Globalstar
12.62266519;9.04E-5;51.9917;260.372;89.071;14.3472;7.7294E-5;-9.0E-7;0;Globalstar
12.62266545;9.06E-5;51.9917;259.8424;89.1362;84.8991;9.8651E-5;-8.6E-7;0;Globalstar
12.62266456;8.98E-5;51.9923;258.2596;87.751;289.9905;-5.8817E-5;-1.14E-6;0;Globalstar
12.62266444;8.97E-5;51.9923;257.736;88.1656;351.4146;-6.5812E-5;-1.16E-6;0;Globalstar
12.62266496;8.78E-5;51.9923;254.0999;91.1455;17.2081;-2.8257E-5;-1.09E-6;0;Globalstar
12.62266515;8.9E-5;51.9919;250.9315;92.616;65.7053;2.4215E-6;-1.03E-6;0;Globalstar
12.62266471;8.59E-5;51.9924;247.8412;94.3325;358.436;-3.7798E-5;-1.11E-6;0;Globalstar
12.62266471;8.59E-5;51.9924;247.8412;94.3325;358.436;-3.7798E-5;-1.11E-6;0;Globalstar
12.62266451;8.55E-5;51.9924;244.9035;95.5443;63.2907;-4.3024E-5;-1.11E-6;0;Globalstar
12.62266418;8.38E-5;51.9925;242.0109;97.2919;60.3865;-5.7068E-5;-1.14E-6;0;Globalstar
12.62266432;8.29E-5;51.9925;239.6521;98.4486;341.1365;-5.928E-5;-1.14E-6;0;Globalstar
12.62266423;8.24E-5;51.9926;237.9835;98.9285;311.883;-5.5891E-5;-1.14E-6;0;Globalstar
12.62266426;8.33E-5;51.9926;236.7606;99.3469;337.3744;-4.7818E-5;-1.12E-6;0;Globalstar
12.62266429;8.29E-5;51.9926;235.9815;99.6443;60.3647;-3.3668E-5;-1.1E-6;0;Globalstar
12.62266424;8.23E-5;51.9926;234.8443;99.9553;318.0142;-4.0701E-5;-1.11E-6;0;Globalstar
12.62266439;8.21E-5;51.9926;233.6071;100.5987;4.6196;-2.7791E-5;-1.09E-6;0;Globalstar
12.62266371;8.34E-5;51.9921;232.613;100.7534;48.3892;-4.8295E-5;-1.12E-6;0;Globalstar
12.62266379;8.03E-5;51.9927;229.7253;101.4678;39.6539;-6.3544E-5;-1.15E-6;0;Globalstar
12.62266394;8.04E-5;51.9927;229.4713;101.6538;58.7059;-5.0123E-5;-1.13E-6;0;Globalstar
12.62266326;7.97E-5;51.9927;227.339;102.802;1.3074;-0.00010517;-1.23E-6;0;Globalstar
12.62266344;7.76E-5;51.9928;224.7046;104.5711;332.9394;-7.4153E-5;-1.17E-6;0;Globalstar
12.62266364;7.53E-5;51.9928;221.5837;106.0824;311.3371;-4.5963E-5;-1.12E-6;0;Globalstar
12.62266324;7.56E-5;51.9928;218.1754;106.2843;0.1443;-4.6207E-5;-1.12E-6;0;Globalstar
12.62266358;7.51E-5;51.9926;215.0066;107.5465;49.9665;1.6745E-5;-1.01E-6;0;Globalstar
12.622664;7.32E-5;51.9926;211.8716;108.6366;49.865;4.1968E-6;-1.03E-6;0;Globalstar
12.62266415;7.08E-5;51.9925;208.5017;109.7757;40.4963;-2.5016E-5;-1.08E-6;0;Globalstar
12.62266373;6.96E-5;51.9925;206.1195;111.0642;356.3237;-6.3828E-5;-1.15E-6;0;Globalstar
12.6226641;6.75E-5;51.9924;203.2308;112.3432;348.2393;-2.482E-5;-1.08E-6;0;Globalstar
12.6226642;6.75E-5;51.9924;202.9528;112.3293;43.3399;-1.6601E-5;-1.07E-6;0;Globalstar
12.62266407;6.51E-5;51.9924;199.5863;112.9078;29.4659;5.8578E-6;-1.03E-6;0;Globalstar
12.62266395;6.37E-5;51.9923;197.2029;113.8094;347.2216;2.8091E-5;-9.9E-7;0;Globalstar
12.62266397;6.28E-5;51.9922;195.0884;114.1156;264.1973;6.2002E-5;-9.3E-7;0;Globalstar
12.62266475;6.21E-5;51.9922;193.5585;114.2294;28.4857;0.00013658;-7.9E-7;0;Globalstar
12.62266497;6.06E-5;51.9922;191.1754;114.9576;345.9929;0.00016223;-7.5E-7;0;Globalstar
12.62266537;5.99E-5;51.9922;190.4175;114.8647;37.7732;0.00019034;-7.0E-7;0;Globalstar
12.62266555;5.84E-5;51.9921;187.5306;115.4582;27.5913;0.00018836;-7.0E-7;0;Globalstar
12.62266579;5.69E-5;51.9921;185.1478;116.4556;344.5479;0.00016734;-7.4E-7;0;Globalstar
12.62266614;5.55E-5;51.9921;183.0216;116.926;278.7474;0.00015155;-7.7E-7;0;Globalstar
12.62266622;5.5E-5;51.992;182.0231;116.9929;329.6185;0.00014035;-7.9E-7;0;Globalstar
12.62266636;5.34E-5;51.9919;179.8651;117.5247;311.2648;8.6419E-5;-8.8E-7;0;Globalstar
12.62266638;5.31E-5;51.9919;179.1202;117.5985;343.4162;7.8947E-5;-9.0E-7;0;Globalstar
12.62266639;5.14E-5;51.9918;176.468;118.1522;342.8733;1.7965E-5;-1.01E-6;0;Globalstar
12.62266661;5.1E-5;51.9918;175.952;117.955;33.4992;3.4367E-5;-9.8E-7;0;Globalstar
12.62266723;5.02E-5;51.9917;173.0924;118.061;343.2928;3.9678E-5;-9.7E-7;0;Globalstar
12.62266737;4.91E-5;51.9916;172.3341;117.7623;35.6514;4.0747E-5;-9.6E-7;0;Globalstar
12.62266733;4.8E-5;51.9915;169.9676;118.18;328.8187;2.8824E-5;-9.9E-7;0;Globalstar
12.62266741;4.75E-5;51.9914;169.4419;118.1284;33.7514;3.2059E-5;-9.8E-7;0;Globalstar
12.62266756;4.6E-5;51.9913;166.8267;118.1256;338.3932;5.0675E-5;-9.5E-7;0;Globalstar
12.62266767;4.59E-5;51.9913;166.58;118.1528;346.7662;5.975E-5;-9.3E-7;0;Globalstar
12.62266776;4.36E-5;51.9912;163.4138;117.4701;34.7404;8.0997E-5;-8.9E-7;0;Globalstar
12.62266787;4.19E-5;51.9911;160.7645;116.8231;31.013;0.00011185;-8.4E-7;0;Globalstar
12.62266812;4.06E-5;51.991;158.6418;116.5648;320.5304;0.00012697;-8.1E-7;0;Globalstar
12.62266822;4.02E-5;51.991;157.6506;115.3962;1.676;0.00014819;-7.7E-7;0;Globalstar
12.62266847;3.91E-5;51.991;155.5091;115.372;318.9264;0.00015166;-7.7E-7;0;Globalstar
12.62266884;3.86E-5;51.991;154.7367;114.3819;33.1773;0.00018712;-7.0E-7;0;Globalstar
12.62266929;3.69E-5;51.9909;151.6222;113.0597;4.4792;0.00018413;-7.1E-7;0;Globalstar
12.62266975;3.53E-5;51.9909;148.4752;111.3234;24.8268;0.00015765;-7.6E-7;0;Globalstar
12.62266982;3.51E-5;51.9908;148.2204;111.0949;45.4733;0.00015227;-7.6E-7;0;Globalstar
12.62267001;3.39E-5;51.9908;145.3304;108.8031;42.7366;0.00010478;-8.5E-7;0;Globalstar
12.62267001;3.33E-5;51.9908;143.4525;108.3211;326.858;5.0415E-5;-9.5E-7;0;Globalstar
12.62267008;3.26E-5;51.9907;142.1926;106.1469;50.1414;3.4752E-5;-9.8E-7;0;Globalstar
12.62267011;3.22E-5;51.9908;140.3153;105.3484;333.6881;-3.1317E-6;-1.04E-6;0;Globalstar
12.62267021;3.19E-5;51.9907;139.302;103.3899;48.5886;-4.9726E-6;-1.05E-6;0;Globalstar
12.62267018;3.13E-5;51.9907;136.4188;101.6857;35.0645;-3.3781E-5;-1.1E-6;0;Globalstar
12.62266998;3.09E-5;51.9907;133.2744;98.8079;52.454;-5.8684E-5;-1.14E-6;0;Globalstar
12.62267007;3.08E-5;51.9907;130.3904;95.5529;41.5086;-2.9578E-5;-1.09E-6;0;Globalstar
12.6226698;3.09E-5;51.9908;128.2591;93.2541;345.7693;-3.7479E-5;-1.1E-6;0;Globalstar
12.62267005;3.1E-5;51.9908;127.2465;92.4364;58.4489;-5.6901E-6;-1.05E-6;0;Globalstar
12.62267032;3.14E-5;51.9909;124.362;89.5642;47.887;4.8958E-5;-9.5E-7;0;Globalstar
12.62267029;3.12E-5;51.9909;124.1077;89.2738;67.8288;4.0352E-5;-9.7E-7;0;Globalstar
12.62267036;3.1E-5;51.9911;121.2193;88.2596;61.3057;5.8599E-5;-9.3E-7;0;Globalstar
12.62267034;3.13E-5;51.9913;118.0786;85.71;72.9639;4.8498E-5;-9.5E-7;0;Globalstar
12.62267043;3.1E-5;51.9915;115.1912;84.7353;65.1341;2.3765E-5;-1.0E-6;0;Globalstar
12.62267032;3.18E-5;51.9917;113.0774;83.431;342.464;-7.7975E-8;-1.04E-6;0;Globalstar
12.62267044;3.22E-5;51.9917;112.0505;81.8427;77.2668;-7.0559E-6;-1.05E-6;0;Globalstar
12.62267049;3.23E-5;51.9919;109.1642;80.652;67.8774;-4.4845E-5;-1.12E-6;0;Globalstar
12.62267035;3.32E-5;51.9921;106.7824;79.4216;25.3178;-7.0587E-5;-1.16E-6;0;Globalstar
12.6226702;3.42E-5;51.9922;104.1617;78.7747;338.8945;-0.00010392;-1.22E-6;0;Globalstar
12.6226701;3.46E-5;51.9922;103.1362;78.025;70.8287;-0.00011326;-1.24E-6;0;Globalstar
12.62266985;3.56E-5;51.9924;101.021;77.2456;349.6457;-0.00012359;-1.26E-6;0;Globalstar
12.62266966;3.63E-5;51.9924;99.9945;76.4001;83.1768;-0.00013695;-1.28E-6;0;Globalstar
12.62266932;3.75E-5;51.9926;97.8614;76.3596;28.19;-0.00013212;-1.27E-6;0;Globalstar
12.6226697;3.74E-5;51.9931;97.1086;75.7851;73.3122;-6.4541E-5;-1.15E-6;0;Globalstar
12.62266941;3.95E-5;51.9928;94.7266;75.2027;29.7786;-7.8667E-5;-1.18E-6;0;Globalstar
12.62266938;3.99E-5;51.9929;93.9656;74.6679;86.5257;-7.9637E-5;-1.18E-6;0;Globalstar
12.62266944;4.09E-5;51.9931;91.3109;74.6324;90.3225;-2.9916E-5;-1.09E-6;0;Globalstar
12.62266945;4.1E-5;51.9931;91.0802;74.441;74.9479;-2.9579E-5;-1.09E-6;0;Globalstar
12.62266931;4.28E-5;51.9933;87.9388;74.0976;85.9499;-5.8474E-6;-1.05E-6;0;Globalstar
12.62266916;4.51E-5;51.9937;83.4468;74.2445;312.9211;9.1986E-7;-1.04E-6;0;Globalstar
12.62266897;4.61E-5;51.9937;82.6708;74.127;31.7899;-5.9925E-6;-1.05E-6;0;Globalstar
12.62266916;4.64E-5;51.9938;82.1646;73.8525;68.0007;3.2945E-6;-1.03E-6;0;Globalstar
12.62266915;4.62E-5;51.9942;79.5458;73.9924;18.4382;-6.6586E-5;-1.16E-6;0;Globalstar
